{
  "type": "FeatureCollection",
  "features": [
    {
      "type": "Feature",
      "properties": {
        "norad_id": 40889,
        "name": "GSAT0205 (GALILEO 9)",
        "group": "galileo",
        "lat": 54.89053955214174,
        "lon": -48.54948649015754,
        "alt_km": 23204.079512953773,
        "timestamp": "2025-12-08T17:43:05.193566+00:00",
        "meta_object_name": "GSAT0205 (GALILEO 9)",
        "meta_object_id": "2015-045A",
        "meta_epoch": "2025-12-06T20:05:28.161600",
        "meta_mean_motion": 1.70472973,
        "meta_eccentricity": 0.00059315,
        "meta_inclination": 55.0055,
        "meta_ra_of_asc_node": 226.9215,
        "meta_arg_of_pericenter": 39.3036,
        "meta_mean_anomaly": 320.836,
        "meta_ephemeris_type": 0,
        "meta_classification_type": "U",
        "meta_norad_cat_id": 40889,
        "meta_element_set_no": 999,
        "meta_rev_at_epoch": 6373,
        "meta_bstar": 0,
        "meta_mean_motion_dot": 2.8e-07,
        "meta_mean_motion_ddot": 0,
        "tle_line1": "1 40889U 15045A   25340.83713150  .00000028  00000+0  00000+0 0  9994",
        "tle_line2": "2 40889  55.0055 226.9215 0005931  39.3036 320.8360  1.70472973 63731"
      },
      "geometry": {
        "type": "Point",
        "coordinates": [
          -48.54948649015754,
          54.89053955214174
        ]
      }
    },
    {
      "type": "Feature",
      "properties": {
        "norad_id": 40890,
        "name": "GSAT0206 (GALILEO 10)",
        "group": "galileo",
        "lat": -37.95416877892008,
        "lon": -166.21558669901216,
        "alt_km": 23225.21526022613,
        "timestamp": "2025-12-08T17:43:05.193578+00:00",
        "meta_object_name": "GSAT0206 (GALILEO 10)",
        "meta_object_id": "2015-045B",
        "meta_epoch": "2025-12-05T21:13:48.980352",
        "meta_mean_motion": 1.70473029,
        "meta_eccentricity": 0.00035588,
        "meta_inclination": 55.0048,
        "meta_ra_of_asc_node": 226.9429,
        "meta_arg_of_pericenter": 32.2764,
        "meta_mean_anomaly": 327.8431,
        "meta_ephemeris_type": 0,
        "meta_classification_type": "U",
        "meta_norad_cat_id": 40890,
        "meta_element_set_no": 999,
        "meta_rev_at_epoch": 6374,
        "meta_bstar": 0,
        "meta_mean_motion_dot": 3.5e-07,
        "meta_mean_motion_ddot": 0,
        "tle_line1": "1 40890U 15045B   25339.88459468  .00000035  00000+0  00000+0 0  9996",
        "tle_line2": "2 40890  55.0048 226.9429 0003558  32.2764 327.8431  1.70473029 63745"
      },
      "geometry": {
        "type": "Point",
        "coordinates": [
          -166.21558669901216,
          -37.95416877892008
        ]
      }
    },
    {
      "type": "Feature",
      "properties": {
        "norad_id": 41174,
        "name": "GSAT0209 (GALILEO 12)",
        "group": "galileo",
        "lat": -22.982884197715528,
        "lon": -56.7159018067164,
        "alt_km": 23231.223189790246,
        "timestamp": "2025-12-08T17:43:05.193590+00:00",
        "meta_object_name": "GSAT0209 (GALILEO 12)",
        "meta_object_id": "2015-079A",
        "meta_epoch": "2025-12-01T22:43:10.411392",
        "meta_mean_motion": 1.70474306,
        "meta_eccentricity": 0.0002352,
        "meta_inclination": 55.7062,
        "meta_ra_of_asc_node": 106.6773,
        "meta_arg_of_pericenter": 357.4206,
        "meta_mean_anomaly": 2.5431,
        "meta_ephemeris_type": 0,
        "meta_classification_type": "U",
        "meta_norad_cat_id": 41174,
        "meta_element_set_no": 999,
        "meta_rev_at_epoch": 6141,
        "meta_bstar": 0,
        "meta_mean_motion_dot": 3.5e-07,
        "meta_mean_motion_ddot": 0,
        "tle_line1": "1 41174U 15079A   25335.94664828  .00000035  00000+0  00000+0 0  9990",
        "tle_line2": "2 41174  55.7062 106.6773 0002352 357.4206   2.5431  1.70474306 61412"
      },
      "geometry": {
        "type": "Point",
        "coordinates": [
          -56.7159018067164,
          -22.982884197715528
        ]
      }
    },
    {
      "type": "Feature",
      "properties": {
        "norad_id": 41175,
        "name": "GSAT0208 (GALILEO 11)",
        "group": "galileo",
        "lat": 52.238981230141604,
        "lon": 168.12639827174746,
        "alt_km": 23214.004644737608,
        "timestamp": "2025-12-08T17:43:05.193602+00:00",
        "meta_object_name": "GSAT0208 (GALILEO 11)",
        "meta_object_id": "2015-079B",
        "meta_epoch": "2025-12-07T10:42:17.817120",
        "meta_mean_motion": 1.70474201,
        "meta_eccentricity": 0.00018539,
        "meta_inclination": 55.7081,
        "meta_ra_of_asc_node": 106.5234,
        "meta_arg_of_pericenter": 5.1909,
        "meta_mean_anomaly": 354.7678,
        "meta_ephemeris_type": 0,
        "meta_classification_type": "U",
        "meta_norad_cat_id": 41175,
        "meta_element_set_no": 999,
        "meta_rev_at_epoch": 6192,
        "meta_bstar": 0,
        "meta_mean_motion_dot": 8e-08,
        "meta_mean_motion_ddot": 0,
        "tle_line1": "1 41175U 15079B   25341.44603955  .00000008  00000+0  00000+0 0  9997",
        "tle_line2": "2 41175  55.7081 106.5234 0001853   5.1909 354.7678  1.70474201 61922"
      },
      "geometry": {
        "type": "Point",
        "coordinates": [
          168.12639827174746,
          52.238981230141604
        ]
      }
    },
    {
      "type": "Feature",
      "properties": {
        "norad_id": 41549,
        "name": "GSAT0211 (GALILEO 14)",
        "group": "galileo",
        "lat": -2.5347674497193835,
        "lon": -134.82244359434887,
        "alt_km": 23211.556959387748,
        "timestamp": "2025-12-08T17:43:05.193613+00:00",
        "meta_object_name": "GSAT0211 (GALILEO 14)",
        "meta_object_id": "2016-030A",
        "meta_epoch": "2025-12-07T13:40:58.264320",
        "meta_mean_motion": 1.70472997,
        "meta_eccentricity": 0.00040128,
        "meta_inclination": 55.154,
        "meta_ra_of_asc_node": 226.9659,
        "meta_arg_of_pericenter": 14.4678,
        "meta_mean_anomaly": 345.6377,
        "meta_ephemeris_type": 0,
        "meta_classification_type": "U",
        "meta_norad_cat_id": 41549,
        "meta_element_set_no": 999,
        "meta_rev_at_epoch": 5940,
        "meta_bstar": 0,
        "meta_mean_motion_dot": 2.3e-07,
        "meta_mean_motion_ddot": 0,
        "tle_line1": "1 41549U 16030A   25341.57011880  .00000023  00000+0  00000+0 0  9991",
        "tle_line2": "2 41549  55.1540 226.9659 0004012  14.4678 345.6377  1.70472997 59400"
      },
      "geometry": {
        "type": "Point",
        "coordinates": [
          -134.82244359434887,
          -2.5347674497193835
        ]
      }
    },
    {
      "type": "Feature",
      "properties": {
        "norad_id": 41550,
        "name": "GSAT0210 (GALILEO 13)",
        "group": "galileo",
        "lat": -15.467758988990916,
        "lon": 58.04671015795053,
        "alt_km": 23221.60627906092,
        "timestamp": "2025-12-08T17:43:05.193624+00:00",
        "meta_object_name": "GSAT0210 (GALILEO 13)",
        "meta_object_id": "2016-030B",
        "meta_epoch": "2025-12-07T19:51:37.971648",
        "meta_mean_motion": 1.70473554,
        "meta_eccentricity": 0.00013454,
        "meta_inclination": 55.1532,
        "meta_ra_of_asc_node": 226.9569,
        "meta_arg_of_pericenter": 243.5769,
        "meta_mean_anomaly": 116.5022,
        "meta_ephemeris_type": 0,
        "meta_classification_type": "U",
        "meta_norad_cat_id": 41550,
        "meta_element_set_no": 999,
        "meta_rev_at_epoch": 5940,
        "meta_bstar": 0,
        "meta_mean_motion_dot": 2.1e-07,
        "meta_mean_motion_ddot": 0,
        "tle_line1": "1 41550U 16030B   25341.82752282  .00000021  00000+0  00000+0 0  9997",
        "tle_line2": "2 41550  55.1532 226.9569 0001345 243.5769 116.5022  1.70473554 59407"
      },
      "geometry": {
        "type": "Point",
        "coordinates": [
          58.04671015795053,
          -15.467758988990916
        ]
      }
    },
    {
      "type": "Feature",
      "properties": {
        "norad_id": 41859,
        "name": "GSAT0207 (GALILEO 15)",
        "group": "galileo",
        "lat": 22.8616445027151,
        "lon": 123.26659227582365,
        "alt_km": 23216.57189134386,
        "timestamp": "2025-12-08T17:43:05.193636+00:00",
        "meta_object_name": "GSAT0207 (GALILEO 15)",
        "meta_object_id": "2016-069A",
        "meta_epoch": "2025-12-06T22:22:57.829728",
        "meta_mean_motion": 1.70474256,
        "meta_eccentricity": 0.00021753,
        "meta_inclination": 55.3787,
        "meta_ra_of_asc_node": 106.4111,
        "meta_arg_of_pericenter": 324.2379,
        "meta_mean_anomaly": 35.7022,
        "meta_ephemeris_type": 0,
        "meta_classification_type": "U",
        "meta_norad_cat_id": 41859,
        "meta_element_set_no": 999,
        "meta_rev_at_epoch": 5612,
        "meta_bstar": 0,
        "meta_mean_motion_dot": 7e-08,
        "meta_mean_motion_ddot": 0,
        "tle_line1": "1 41859U 16069A   25340.93261377  .00000007  00000+0  00000+0 0  9996",
        "tle_line2": "2 41859  55.3787 106.4111 0002175 324.2379  35.7022  1.70474256 56122"
      },
      "geometry": {
        "type": "Point",
        "coordinates": [
          123.26659227582365,
          22.8616445027151
        ]
      }
    }
  ]
}